ONEWEB-0218             
1 48214U 21031E   25356.20355670  .00000152  00000+0  37617-3 0  9999
2 48214  87.9013 324.9499 0001623  51.1218 309.0056 13.14504578225122
ONEWEB-0209             
1 48215U 21031F   25355.65962863 -.00000004  00000+0 -45551-4 0  9991
2 48215  87.8998 325.0937 0001581  85.9523 274.1787 13.14503900225053
ONEWEB-0198             
1 48216U 21031G   25355.94836689 -.00000565  00000+0 -15578-2 0  9996
2 48216  87.8993 325.0327 0001432  74.1823 285.9464 13.14502063225208
ONEWEB-0189             
1 48217U 21031H   25355.96091292 -.00000421  00000+0 -11699-2 0  9993
2 48217  87.9004 325.0050 0001547  75.4052 284.7249 13.14502767224940
ONEWEB-0196             
1 48218U 21031J   25355.93872687 -.00000079  00000+0 -24809-3 0  9993
2 48218  87.8996 325.0229 0001645  82.0234 278.1083 13.14504194224942
ONEWEB-0183             
1 48219U 21031K   25355.83723824  .00000194  00000+0  48803-3 0  9997
2 48219  87.8989 325.0470 0001816  89.8685 270.2653 13.14503619225025
ONEWEB-0185             
1 48220U 21031L   25355.86339808 -.00000044  00000+0 -15281-3 0  9997
2 48220  87.9014 325.0198 0001480  94.6626 265.4672 13.14504381224955
ONEWEB-0187             
1 48221U 21031M   25355.84343789  .00000170  00000+0  42314-3 0  9994
2 48221  87.8990 325.0636 0001500  83.8939 276.2362 13.14500918224964
ONEWEB-0192             
1 48222U 21031N   25356.19403929  .00000030  00000+0  46530-4 0  9997
2 48222  87.8990 324.9835 0001771  80.4940 279.6390 13.14504763224925
ONEWEB-0219             
1 48223U 21031P   25355.94506008 -.00000273  00000+0 -77166-3 0  9991
2 48223  87.9000 325.0118 0001534  87.7583 272.3722 13.14503987225090
ONEWEB-0202             
1 48224U 21031Q   25356.15438844  .00000180  00000+0  45030-3 0  9998
2 48224  87.8993 324.9818 0001462  60.3097 299.8179 13.14500513225107
ONEWEB-0204             
1 48225U 21031R   25356.18847531 -.00000069  00000+0 -22055-3 0  9999
2 48225  87.9006 324.9656 0001901  91.7854 268.3494 13.14505242225005
ONEWEB-0205             
1 48226U 21031S   25356.16390099 -.00000049  00000+0 -16682-3 0  9997
2 48226  87.9001 324.9633 0001642  85.9842 274.1475 13.14504412225013
ONEWEB-0206             
1 48227U 21031T   25355.68025572  .00000245  00000+0  62651-3 0  9998
2 48227  87.9013 325.0509 0002007  80.8053 279.3304 13.14503013224906
ONEWEB-0182             
1 48228U 21031U   25356.28442769  .00000308  00000+0  79719-3 0  9990
2 48228  87.8991 324.9573 0001861  89.3135 270.8208 13.14504546225195
ONEWEB-0186             
1 48229U 21031V   25355.91493746  .00000190  00000+0  47894-3 0  9999
2 48229  87.9009 325.0095 0001636  83.2154 276.9162 13.14503768225092
ONEWEB-0181             
1 48230U 21031W   25355.89273251  .00000085  00000+0  19453-3 0  9998
2 48230  87.8995 325.0660 0001579  82.3954 277.7355 13.14503977224947
