[{"OBJECT_NAME":"ONEWEB-0218","OBJECT_ID":"2021-031E","EPOCH":"2025-12-22T04:53:07.298880","MEAN_MOTION":13.14504578,"ECCENTRICITY":0.00016231,"INCLINATION":87.9013,"RA_OF_ASC_NODE":324.9499,"ARG_OF_PERICENTER":51.1218,"MEAN_ANOMALY":309.0056,"EPHEMERIS_TYPE":0,"CLASSIFICATION_TYPE":"U","NORAD_CAT_ID":48214,"ELEMENT_SET_NO":999,"REV_AT_EPOCH":22512,"BSTAR":0.0003761695,"MEAN_MOTION_DOT":1.52e-6,"MEAN_MOTION_DDOT":0},{"OBJECT_NAME":"ONEWEB-0209","OBJECT_ID":"2021-031F","EPOCH":"2025-12-21T15:49:51.913632","MEAN_MOTION":13.145039,"ECCENTRICITY":0.00015817,"INCLINATION":87.8998,"RA_OF_ASC_NODE":325.0937,"ARG_OF_PERICENTER":85.9523,"MEAN_ANOMALY":274.1787,"EPHEMERIS_TYPE":0,"CLASSIFICATION_TYPE":"U","NORAD_CAT_ID":48215,"ELEMENT_SET_NO":999,"REV_AT_EPOCH":22505,"BSTAR":-4.5551192e-5,"MEAN_MOTION_DOT":-4.0e-8,"MEAN_MOTION_DDOT":0},{"OBJECT_NAME":"ONEWEB-0198","OBJECT_ID":"2021-031G","EPOCH":"2025-12-21T22:45:38.899296","MEAN_MOTION":13.14502063,"ECCENTRICITY":0.00014326,"INCLINATION":87.8993,"RA_OF_ASC_NODE":325.0327,"ARG_OF_PERICENTER":74.1823,"MEAN_ANOMALY":285.9464,"EPHEMERIS_TYPE":0,"CLASSIFICATION_TYPE":"U","NORAD_CAT_ID":48216,"ELEMENT_SET_NO":999,"REV_AT_EPOCH":22520,"BSTAR":-0.0015577879,"MEAN_MOTION_DOT":-5.65e-6,"MEAN_MOTION_DDOT":0},{"OBJECT_NAME":"ONEWEB-0189","OBJECT_ID":"2021-031H","EPOCH":"2025-12-21T23:03:42.876288","MEAN_MOTION":13.14502767,"ECCENTRICITY":0.0001547,"INCLINATION":87.9004,"RA_OF_ASC_NODE":325.005,"ARG_OF_PERICENTER":75.4052,"MEAN_ANOMALY":284.7249,"EPHEMERIS_TYPE":0,"CLASSIFICATION_TYPE":"U","NORAD_CAT_ID":48217,"ELEMENT_SET_NO":999,"REV_AT_EPOCH":22494,"BSTAR":-0.0011699,"MEAN_MOTION_DOT":-4.21e-6,"MEAN_MOTION_DDOT":0},{"OBJECT_NAME":"ONEWEB-0196","OBJECT_ID":"2021-031J","EPOCH":"2025-12-21T22:31:46.001568","MEAN_MOTION":13.14504194,"ECCENTRICITY":0.00016459,"INCLINATION":87.8996,"RA_OF_ASC_NODE":325.0229,"ARG_OF_PERICENTER":82.0234,"MEAN_ANOMALY":278.1083,"EPHEMERIS_TYPE":0,"CLASSIFICATION_TYPE":"U","NORAD_CAT_ID":48218,"ELEMENT_SET_NO":999,"REV_AT_EPOCH":22494,"BSTAR":-0.00024809183,"MEAN_MOTION_DOT":-7.9e-7,"MEAN_MOTION_DDOT":0},{"OBJECT_NAME":"ONEWEB-0183","OBJECT_ID":"2021-031K","EPOCH":"2025-12-21T20:05:37.383936","MEAN_MOTION":13.14503619,"ECCENTRICITY":0.00018166,"INCLINATION":87.8989,"RA_OF_ASC_NODE":325.047,"ARG_OF_PERICENTER":89.8685,"MEAN_ANOMALY":270.2653,"EPHEMERIS_TYPE":0,"CLASSIFICATION_TYPE":"U","NORAD_CAT_ID":48219,"ELEMENT_SET_NO":999,"REV_AT_EPOCH":22502,"BSTAR":0.00048802784,"MEAN_MOTION_DOT":1.94e-6,"MEAN_MOTION_DDOT":0},{"OBJECT_NAME":"ONEWEB-0185","OBJECT_ID":"2021-031L","EPOCH":"2025-12-21T20:43:17.594112","MEAN_MOTION":13.14504381,"ECCENTRICITY":0.00014805,"INCLINATION":87.9014,"RA_OF_ASC_NODE":325.0198,"ARG_OF_PERICENTER":94.6626,"MEAN_ANOMALY":265.4672,"EPHEMERIS_TYPE":0,"CLASSIFICATION_TYPE":"U","NORAD_CAT_ID":48220,"ELEMENT_SET_NO":999,"REV_AT_EPOCH":22495,"BSTAR":-0.00015280911,"MEAN_MOTION_DOT":-4.4e-7,"MEAN_MOTION_DDOT":0},{"OBJECT_NAME":"ONEWEB-0187","OBJECT_ID":"2021-031M","EPOCH":"2025-12-21T20:14:33.033696","MEAN_MOTION":13.14500918,"ECCENTRICITY":0.00015005,"INCLINATION":87.899,"RA_OF_ASC_NODE":325.0636,"ARG_OF_PERICENTER":83.8939,"MEAN_ANOMALY":276.2362,"EPHEMERIS_TYPE":0,"CLASSIFICATION_TYPE":"U","NORAD_CAT_ID":48221,"ELEMENT_SET_NO":999,"REV_AT_EPOCH":22496,"BSTAR":0.00042313976,"MEAN_MOTION_DOT":1.7e-6,"MEAN_MOTION_DDOT":0},{"OBJECT_NAME":"ONEWEB-0192","OBJECT_ID":"2021-031N","EPOCH":"2025-12-22T04:39:24.994656","MEAN_MOTION":13.14504763,"ECCENTRICITY":0.00017718,"INCLINATION":87.899,"RA_OF_ASC_NODE":324.9835,"ARG_OF_PERICENTER":80.494,"MEAN_ANOMALY":279.639,"EPHEMERIS_TYPE":0,"CLASSIFICATION_TYPE":"U","NORAD_CAT_ID":48222,"ELEMENT_SET_NO":999,"REV_AT_EPOCH":22492,"BSTAR":4.6529819e-5,"MEAN_MOTION_DOT":3.0e-7,"MEAN_MOTION_DDOT":0},{"OBJECT_NAME":"ONEWEB-0219","OBJECT_ID":"2021-031P","EPOCH":"2025-12-21T22:40:53.190912","MEAN_MOTION":13.14503987,"ECCENTRICITY":0.00015347,"INCLINATION":87.9,"RA_OF_ASC_NODE":325.0118,"ARG_OF_PERICENTER":87.7583,"MEAN_ANOMALY":272.3722,"EPHEMERIS_TYPE":0,"CLASSIFICATION_TYPE":"U","NORAD_CAT_ID":48223,"ELEMENT_SET_NO":999,"REV_AT_EPOCH":22509,"BSTAR":-0.00077166125,"MEAN_MOTION_DOT":-2.73e-6,"MEAN_MOTION_DDOT":0},{"OBJECT_NAME":"ONEWEB-0202","OBJECT_ID":"2021-031Q","EPOCH":"2025-12-22T03:42:19.161216","MEAN_MOTION":13.14500513,"ECCENTRICITY":0.0001462,"INCLINATION":87.8993,"RA_OF_ASC_NODE":324.9818,"ARG_OF_PERICENTER":60.3097,"MEAN_ANOMALY":299.8179,"EPHEMERIS_TYPE":0,"CLASSIFICATION_TYPE":"U","NORAD_CAT_ID":48224,"ELEMENT_SET_NO":999,"REV_AT_EPOCH":22510,"BSTAR":0.00045029554,"MEAN_MOTION_DOT":1.8e-6,"MEAN_MOTION_DDOT":0},{"OBJECT_NAME":"ONEWEB-0204","OBJECT_ID":"2021-031R","EPOCH":"2025-12-22T04:31:24.266784","MEAN_MOTION":13.14505242,"ECCENTRICITY":0.00019011,"INCLINATION":87.9006,"RA_OF_ASC_NODE":324.9656,"ARG_OF_PERICENTER":91.7854,"MEAN_ANOMALY":268.3494,"EPHEMERIS_TYPE":0,"CLASSIFICATION_TYPE":"U","NORAD_CAT_ID":48225,"ELEMENT_SET_NO":999,"REV_AT_EPOCH":22500,"BSTAR":-0.00022054942,"MEAN_MOTION_DOT":-6.9e-7,"MEAN_MOTION_DDOT":0},{"OBJECT_NAME":"ONEWEB-0205","OBJECT_ID":"2021-031S","EPOCH":"2025-12-22T03:56:01.045536","MEAN_MOTION":13.14504412,"ECCENTRICITY":0.0001642,"INCLINATION":87.9001,"RA_OF_ASC_NODE":324.9633,"ARG_OF_PERICENTER":85.9842,"MEAN_ANOMALY":274.1475,"EPHEMERIS_TYPE":0,"CLASSIFICATION_TYPE":"U","NORAD_CAT_ID":48226,"ELEMENT_SET_NO":999,"REV_AT_EPOCH":22501,"BSTAR":-0.00016681834,"MEAN_MOTION_DOT":-4.9e-7,"MEAN_MOTION_DDOT":0},{"OBJECT_NAME":"ONEWEB-0206","OBJECT_ID":"2021-031T","EPOCH":"2025-12-21T16:19:34.094208","MEAN_MOTION":13.14503013,"ECCENTRICITY":0.00020079,"INCLINATION":87.9013,"RA_OF_ASC_NODE":325.0509,"ARG_OF_PERICENTER":80.8053,"MEAN_ANOMALY":279.3304,"EPHEMERIS_TYPE":0,"CLASSIFICATION_TYPE":"U","NORAD_CAT_ID":48227,"ELEMENT_SET_NO":999,"REV_AT_EPOCH":22490,"BSTAR":0.00062651434,"MEAN_MOTION_DOT":2.45e-6,"MEAN_MOTION_DDOT":0},{"OBJECT_NAME":"ONEWEB-0182","OBJECT_ID":"2021-031U","EPOCH":"2025-12-22T06:49:34.552416","MEAN_MOTION":13.14504546,"ECCENTRICITY":0.0001861,"INCLINATION":87.8991,"RA_OF_ASC_NODE":324.9573,"ARG_OF_PERICENTER":89.3135,"MEAN_ANOMALY":270.8208,"EPHEMERIS_TYPE":0,"CLASSIFICATION_TYPE":"U","NORAD_CAT_ID":48228,"ELEMENT_SET_NO":999,"REV_AT_EPOCH":22519,"BSTAR":0.00079718991,"MEAN_MOTION_DOT":3.08e-6,"MEAN_MOTION_DDOT":0},{"OBJECT_NAME":"ONEWEB-0186","OBJECT_ID":"2021-031V","EPOCH":"2025-12-21T21:57:30.596544","MEAN_MOTION":13.14503768,"ECCENTRICITY":0.00016361,"INCLINATION":87.9009,"RA_OF_ASC_NODE":325.0095,"ARG_OF_PERICENTER":83.2154,"MEAN_ANOMALY":276.9162,"EPHEMERIS_TYPE":0,"CLASSIFICATION_TYPE":"U","NORAD_CAT_ID":48229,"ELEMENT_SET_NO":999,"REV_AT_EPOCH":22509,"BSTAR":0.00047894408,"MEAN_MOTION_DOT":1.9e-6,"MEAN_MOTION_DDOT":0},{"OBJECT_NAME":"ONEWEB-0181","OBJECT_ID":"2021-031W","EPOCH":"2025-12-21T21:25:32.088864","MEAN_MOTION":13.14503977,"ECCENTRICITY":0.00015796,"INCLINATION":87.8995,"RA_OF_ASC_NODE":325.066,"ARG_OF_PERICENTER":82.3954,"MEAN_ANOMALY":277.7355,"EPHEMERIS_TYPE":0,"CLASSIFICATION_TYPE":"U","NORAD_CAT_ID":48230,"ELEMENT_SET_NO":999,"REV_AT_EPOCH":22494,"BSTAR":0.00019452879,"MEAN_MOTION_DOT":8.5e-7,"MEAN_MOTION_DDOT":0}]
